[
  {
    "OBJECT_NAME": "SENTINEL-3B",
    "OBJECT_ID": "2018-039A",
    "EPOCH": "2025-04-22T04:47:46.703904",
    "MEAN_MOTION": 14.2673562,
    "ECCENTRICITY": 0.0001619,
    "INCLINATION": 98.6328,
    "RA_OF_ASC_NODE": 180.6799,
    "ARG_OF_PERICENTER": 88.2553,
    "MEAN_ANOMALY": 271.8812,
    "EPHEMERIS_TYPE": 0,
    "CLASSIFICATION_TYPE": "U",
    "NORAD_CAT_ID": 43437,
    "ELEMENT_SET_NO": 999,
    "REV_AT_EPOCH": 36409,
    "BSTAR": 0.00013859,
    "MEAN_MOTION_DOT": 0.00000292,
    "MEAN_MOTION_DDOT": 0
  },
  {
    "OBJECT_NAME": "GAOFEN-5 01",
    "OBJECT_ID": "2018-043A",
    "EPOCH": "2025-04-21T19:43:51.548160",
    "MEAN_MOTION": 14.60100255,
    "ECCENTRICITY": 0.0001108,
    "INCLINATION": 98.4012,
    "RA_OF_ASC_NODE": 71.2265,
    "ARG_OF_PERICENTER": 353.9367,
    "MEAN_ANOMALY": 6.1819,
    "EPHEMERIS_TYPE": 0,
    "CLASSIFICATION_TYPE": "U",
    "NORAD_CAT_ID": 43461,
    "ELEMENT_SET_NO": 999,
    "REV_AT_EPOCH": 37019,
    "BSTAR": 0.00020655,
    "MEAN_MOTION_DOT": 0.00000945,
    "MEAN_MOTION_DDOT": 0
  },
  {
    "OBJECT_NAME": "GAOFEN-6",
    "OBJECT_ID": "2018-048A",
    "EPOCH": "2025-04-22T04:23:19.599936",
    "MEAN_MOTION": 14.76571205,
    "ECCENTRICITY": 0.0014257,
    "INCLINATION": 97.8255,
    "RA_OF_ASC_NODE": 183.9105,
    "ARG_OF_PERICENTER": 93.3951,
    "MEAN_ANOMALY": 266.889,
    "EPHEMERIS_TYPE": 0,
    "CLASSIFICATION_TYPE": "U",
    "NORAD_CAT_ID": 43484,
    "ELEMENT_SET_NO": 999,
    "REV_AT_EPOCH": 37126,
    "BSTAR": 0.00023809,
    "MEAN_MOTION_DOT": 0.00001614,
    "MEAN_MOTION_DDOT": 0
  },
  {
    "OBJECT_NAME": "GAOFEN-11 01",
    "OBJECT_ID": "2018-063A",
    "EPOCH": "2025-04-22T03:56:56.313888",
    "MEAN_MOTION": 15.42370005,
    "ECCENTRICITY": 0.0008055,
    "INCLINATION": 97.1836,
    "RA_OF_ASC_NODE": 177.8584,
    "ARG_OF_PERICENTER": 84.9448,
    "MEAN_ANOMALY": 275.2719,
    "EPHEMERIS_TYPE": 0,
    "CLASSIFICATION_TYPE": "U",
    "NORAD_CAT_ID": 43585,
    "ELEMENT_SET_NO": 999,
    "REV_AT_EPOCH": 37519,
    "BSTAR": 0.00045117,
    "MEAN_MOTION_DOT": 0.0001943,
    "MEAN_MOTION_DDOT": 0
  },
  {
    "OBJECT_NAME": "ICESAT-2",
    "OBJECT_ID": "2018-070A",
    "EPOCH": "2025-04-21T22:18:22.518720",
    "MEAN_MOTION": 15.2827473,
    "ECCENTRICITY": 0.0005949,
    "INCLINATION": 91.9936,
    "RA_OF_ASC_NODE": 177.6703,
    "ARG_OF_PERICENTER": 56.2898,
    "MEAN_ANOMALY": 303.8918,
    "EPHEMERIS_TYPE": 0,
    "CLASSIFICATION_TYPE": "U",
    "NORAD_CAT_ID": 43613,
    "ELEMENT_SET_NO": 999,
    "REV_AT_EPOCH": 36812,
    "BSTAR": 0.00083866,
    "MEAN_MOTION_DOT": 0.00023138,
    "MEAN_MOTION_DDOT": 0
  },
  {
    "OBJECT_NAME": "HYSIS",
    "OBJECT_ID": "2018-096A",
    "EPOCH": "2025-04-22T03:54:20.563200",
    "MEAN_MOTION": 14.78569714,
    "ECCENTRICITY": 0.0001652,
    "INCLINATION": 98.0339,
    "RA_OF_ASC_NODE": 175.8627,
    "ARG_OF_PERICENTER": 81.6488,
    "MEAN_ANOMALY": 278.491,
    "EPHEMERIS_TYPE": 0,
    "CLASSIFICATION_TYPE": "U",
    "NORAD_CAT_ID": 43719,
    "ELEMENT_SET_NO": 999,
    "REV_AT_EPOCH": 34520,
    "BSTAR": 0.00033702,
    "MEAN_MOTION_DOT": 0.00002461,
    "MEAN_MOTION_DDOT": 9.595e-10
  },
  {
    "OBJECT_NAME": "KAZSTSAT",
    "OBJECT_ID": "2018-099AB",
    "EPOCH": "2025-04-22T02:00:43.857216",
    "MEAN_MOTION": 14.98557252,
    "ECCENTRICITY": 0.0008354,
    "INCLINATION": 97.482,
    "RA_OF_ASC_NODE": 157.0732,
    "ARG_OF_PERICENTER": 36.0693,
    "MEAN_ANOMALY": 324.1092,
    "EPHEMERIS_TYPE": 0,
    "CLASSIFICATION_TYPE": "U",
    "NORAD_CAT_ID": 43783,
    "ELEMENT_SET_NO": 999,
    "REV_AT_EPOCH": 34821,
    "BSTAR": 0.00023793,
    "MEAN_MOTION_DOT": 0.00002796,
    "MEAN_MOTION_DDOT": 0
  },
  {
    "OBJECT_NAME": "SAUDISAT 5A",
    "OBJECT_ID": "2018-102A",
    "EPOCH": "2025-04-22T04:09:21.903552",
    "MEAN_MOTION": 15.22454806,
    "ECCENTRICITY": 0.0011451,
    "INCLINATION": 97.3617,
    "RA_OF_ASC_NODE": 177.0112,
    "ARG_OF_PERICENTER": 171.5813,
    "MEAN_ANOMALY": 188.5618,
    "EPHEMERIS_TYPE": 0,
    "CLASSIFICATION_TYPE": "U",
    "NORAD_CAT_ID": 43831,
    "ELEMENT_SET_NO": 999,
    "REV_AT_EPOCH": 35150,
    "BSTAR": 0.00041505,
    "MEAN_MOTION_DOT": 0.00009556,
    "MEAN_MOTION_DDOT": 0
  },
  {
    "OBJECT_NAME": "SAUDISAT 5B",
    "OBJECT_ID": "2018-102C",
    "EPOCH": "2025-04-22T03:52:49.815552",
    "MEAN_MOTION": 15.22920406,
    "ECCENTRICITY": 0.0012056,
    "INCLINATION": 97.3691,
    "RA_OF_ASC_NODE": 179.3308,
    "ARG_OF_PERICENTER": 175.0531,
    "MEAN_ANOMALY": 185.0827,
    "EPHEMERIS_TYPE": 0,
    "CLASSIFICATION_TYPE": "U",
    "NORAD_CAT_ID": 43833,
    "ELEMENT_SET_NO": 999,
    "REV_AT_EPOCH": 35160,
    "BSTAR": 0.00039197,
    "MEAN_MOTION_DOT": 0.00009147,
    "MEAN_MOTION_DDOT": 0
  },
  {
    "OBJECT_NAME": "GAOFEN-10R",
    "OBJECT_ID": "2019-066A",
    "EPOCH": "2025-04-22T05:13:56.449344",
    "MEAN_MOTION": 14.82477487,
    "ECCENTRICITY": 0.0007273,
    "INCLINATION": 98.0003,
    "RA_OF_ASC_NODE": 59.2885,
    "ARG_OF_PERICENTER": 73.8962,
    "MEAN_ANOMALY": 286.3052,
    "EPHEMERIS_TYPE": 0,
    "CLASSIFICATION_TYPE": "U",
    "NORAD_CAT_ID": 44622,
    "ELEMENT_SET_NO": 999,
    "REV_AT_EPOCH": 29999,
    "BSTAR": 0.00038762,
    "MEAN_MOTION_DOT": 0.00003058,
    "MEAN_MOTION_DDOT": 0
  },
  {
    "OBJECT_NAME": "CARTOSAT-3",
    "OBJECT_ID": "2019-081A",
    "EPOCH": "2025-04-22T03:39:13.167072",
    "MEAN_MOTION": 15.19175705,
    "ECCENTRICITY": 0.0015109,
    "INCLINATION": 97.4851,
    "RA_OF_ASC_NODE": 174.2111,
    "ARG_OF_PERICENTER": 179.207,
    "MEAN_ANOMALY": 180.9191,
    "EPHEMERIS_TYPE": 0,
    "CLASSIFICATION_TYPE": "U",
    "NORAD_CAT_ID": 44804,
    "ELEMENT_SET_NO": 999,
    "REV_AT_EPOCH": 29949,
    "BSTAR": 0.00037639,
    "MEAN_MOTION_DOT": 0.00007873,
    "MEAN_MOTION_DDOT": 0
  },
  {
    "OBJECT_NAME": "GAOFEN-12 01",
    "OBJECT_ID": "2019-082A",
    "EPOCH": "2025-04-22T05:11:44.135520",
    "MEAN_MOTION": 14.80333495,
    "ECCENTRICITY": 0.000136,
    "INCLINATION": 97.8161,
    "RA_OF_ASC_NODE": 124.61,
    "ARG_OF_PERICENTER": 324.0094,
    "MEAN_ANOMALY": 36.1027,
    "EPHEMERIS_TYPE": 0,
    "CLASSIFICATION_TYPE": "U",
    "NORAD_CAT_ID": 44819,
    "ELEMENT_SET_NO": 999,
    "REV_AT_EPOCH": 29180,
    "BSTAR": 0.00013324,
    "MEAN_MOTION_DOT": 0.00000965,
    "MEAN_MOTION_DDOT": 0
  },
  {
    "OBJECT_NAME": "CSG-1",
    "OBJECT_ID": "2019-092A",
    "EPOCH": "2025-04-22T04:34:42.632544",
    "MEAN_MOTION": 14.82169543,
    "ECCENTRICITY": 0.0001441,
    "INCLINATION": 97.8877,
    "RA_OF_ASC_NODE": 296.9034,
    "ARG_OF_PERICENTER": 83.5855,
    "MEAN_ANOMALY": 276.5522,
    "EPHEMERIS_TYPE": 0,
    "CLASSIFICATION_TYPE": "U",
    "NORAD_CAT_ID": 44873,
    "ELEMENT_SET_NO": 999,
    "REV_AT_EPOCH": 28911,
    "BSTAR": 0.00015688,
    "MEAN_MOTION_DOT": 0.00001197,
    "MEAN_MOTION_DDOT": 0
  },
  {
    "OBJECT_NAME": "NEMO-HD",
    "OBJECT_ID": "2020-061F",
    "EPOCH": "2025-04-22T04:27:41.026464",
    "MEAN_MOTION": 15.35096084,
    "ECCENTRICITY": 0.0002942,
    "INCLINATION": 97.2489,
    "RA_OF_ASC_NODE": 174.7603,
    "ARG_OF_PERICENTER": 111.0221,
    "MEAN_ANOMALY": 249.1338,
    "EPHEMERIS_TYPE": 0,
    "CLASSIFICATION_TYPE": "U",
    "NORAD_CAT_ID": 46277,
    "ELEMENT_SET_NO": 999,
    "REV_AT_EPOCH": 25720,
    "BSTAR": 0.00043312,
    "MEAN_MOTION_DOT": 0.00014686,
    "MEAN_MOTION_DDOT": 0
  }
]