SENTINEL-3B             
1 43437U 18039A   25112.19984611  .00000292  00000+0  13859-3 0  9993
2 43437  98.6328 180.6799 0001619  88.2553 271.8812 14.26735620364094
GAOFEN-5 01             
1 43461U 18043A   25111.82212440  .00000945  00000+0  20655-3 0  9995
2 43461  98.4012  71.2265 0001108 353.9367   6.1819 14.60100255370192
GAOFEN-6                
1 43484U 18048A   25112.18286574  .00001614  00000+0  23809-3 0  9992
2 43484  97.8255 183.9105 0014257  93.3951 266.8890 14.76571205371263
GAOFEN-11 01            
1 43585U 18063A   25112.16454067  .00019430  00000+0  45117-3 0  9994
2 43585  97.1836 177.8584 0008055  84.9448 275.2719 15.42370005375191
ICESAT-2                
1 43613U 18070A   25111.92942730  .00023138  00000+0  83866-3 0  9999
2 43613  91.9936 177.6703 0005949  56.2898 303.8918 15.28274730368123
HYSIS                   
1 43719U 18096A   25112.16273800  .00002461  95950-9  33702-3 0  9994
2 43719  98.0339 175.8627 0001652  81.6488 278.4910 14.78569714345200
KAZSTSAT                
1 43783U 18099AB  25112.08384094  .00002796  00000+0  23793-3 0  9999
2 43783  97.4820 157.0732 0008354  36.0693 324.1092 14.98557252348216
SAUDISAT 5A             
1 43831U 18102A   25112.17317018  .00009556  00000+0  41505-3 0  9992
2 43831  97.3617 177.0112 0011451 171.5813 188.5618 15.22454806351509
SAUDISAT 5B             
1 43833U 18102C   25112.16168768  .00009147  00000+0  39197-3 0  9999
2 43833  97.3691 179.3308 0012056 175.0531 185.0827 15.22920406351602
GAOFEN-10R              
1 44622U 19066A   25112.21801446  .00003058  00000+0  38762-3 0  9991
2 44622  98.0003  59.2885 0007273  73.8962 286.3052 14.82477487299997
CARTOSAT-3              
1 44804U 19081A   25112.15223573  .00007873  00000+0  37639-3 0  9993
2 44804  97.4851 174.2111 0015109 179.2070 180.9191 15.19175705299498
GAOFEN-12 01            
1 44819U 19082A   25112.21648305  .00000965  00000+0  13324-3 0  9991
2 44819  97.8161 124.6100 0001360 324.0094  36.1027 14.80333495291805
CSG-1                   
1 44873U 19092A   25112.19077121  .00001197  00000+0  15688-3 0  9994
2 44873  97.8877 296.9034 0001441  83.5855 276.5522 14.82169543289114
NEMO-HD                 
1 46277U 20061F   25112.18589151  .00014686  00000+0  43312-3 0  9994
2 46277  97.2489 174.7603 0002942 111.0221 249.1338 15.35096084257207
